[{"OBJECT_NAME":"STARLINK-34006","OBJECT_ID":"2025-094F","EPOCH":"2026-03-09T21:07:40.168128","MEAN_MOTION":14.98349254,"ECCENTRICITY":0.00031298,"INCLINATION":70.0018,"RA_OF_ASC_NODE":233.8967,"ARG_OF_PERICENTER":265.4706,"MEAN_ANOMALY":94.6096,"EPHEMERIS_TYPE":0,"CLASSIFICATION_TYPE":"U","NORAD_CAT_ID":63869,"ELEMENT_SET_NO":999,"REV_AT_EPOCH":4723,"BSTAR":0.00026398316,"MEAN_MOTION_DOT":3.06e-5,"MEAN_MOTION_DDOT":0},{"OBJECT_NAME":"ATLAS 28E DEB","OBJECT_ID":"1990-031F","EPOCH":"2026-03-09T23:20:22.354944","MEAN_MOTION":14.8907054,"ECCENTRICITY":0.00492653,"INCLINATION":89.9045,"RA_OF_ASC_NODE":245.9973,"ARG_OF_PERICENTER":224.0293,"MEAN_ANOMALY":135.7008,"EPHEMERIS_TYPE":0,"CLASSIFICATION_TYPE":"U","NORAD_CAT_ID":20565,"ELEMENT_SET_NO":999,"REV_AT_EPOCH":36885,"BSTAR":0.00032450895,"MEAN_MOTION_DOT":3.143e-5,"MEAN_MOTION_DDOT":0}]
